NORAD_CAT_ID,OBJECT_NAME,OBJECT_TYPE,EPOCH,MEAN_MOTION,ECCENTRICITY,INCLINATION,RA_OF_ASC_NODE,ARG_OF_PERICENTER,MEAN_ANOMALY,BSTAR,MEAN_MOTION_DOT,MEAN_MOTION_DDOT,TLE_LINE0,TLE_LINE1,TLE_LINE2,SEMIMAJOR_AXIS,PERIOD,APOGEE,PERIGEE,DECAYED
54169.0,STARLINK-5282,PAYLOAD,2024-04-17 12:54:14,15.08822402,0.0001118,53.2177,226.369,90.4622,269.6499,-8.7496e-05,-1.679e-05,0.0,0 STARLINK-5282,1 54169U 22141N   24108.53767216 -.00001679  00000-0 -87496-4 0  9990,2 54169  53.2177 226.3690 0001118  90.4622 269.6499 15.08822402 81527,6917.934,95.439,540.573,539.026,0.0
54169.0,STARLINK-5282,PAYLOAD,2024-04-17 14:29:38,15.08825698,0.0001431,53.2156,226.071,73.9161,286.1988,-0.00016682,-2.941e-05,0.0,0 STARLINK-5282,1 54169U 22141N   24108.60391226 -.00002941  00000-0 -16682-3 0  9993,2 54169  53.2156 226.0710 0001431  73.9161 286.1988 15.08825698 81534,6917.924,95.438,540.779,538.799,0.0
54169.0,STARLINK-5282,PAYLOAD,2024-04-18 12:45:02,15.08835008,0.0001358,53.2185,221.9114,61.4071,298.7057,0.00025139,3.715e-05,0.0,0 STARLINK-5282,1 54169U 22141N   24109.53127695  .00003715  00000-0  25139-3 0  9998,2 54169  53.2185 221.9114 0001358  61.4071 298.7057 15.08835008 81675,6917.896,95.438,540.7,538.821,0.0
54169.0,STARLINK-5282,PAYLOAD,2024-04-18 14:20:24,15.08845878,0.0001479,53.2166,221.6093,93.5091,266.6071,0.00018617,2.677e-05,0.0,0 STARLINK-5282,1 54169U 22141N   24109.59750891  .00002677  00000-0  18617-3 0  9993,2 54169  53.2166 221.6093 0001479  93.5091 266.6071 15.08845878 81686,6917.862,95.437,540.751,538.704,0.0
54169.0,STARLINK-5282,PAYLOAD,2024-04-19 12:35:49,15.08846143,0.000154,53.2171,217.447,77.3034,282.813,0.00038953,5.918e-05,0.0,0 STARLINK-5282,1 54169U 22141N   24110.52487310  .00005918  00000-0  38953-3 0  9997,2 54169  53.2171 217.4470 0001540  77.3034 282.8130 15.08846143 81828,6917.862,95.437,540.792,538.661,0.0
54169.0,STARLINK-5282,PAYLOAD,2024-04-20 12:26:36,15.08816678,0.0001021,53.2168,212.9883,81.745,278.3657,-0.00047088,-7.769e-05,0.0,0 STARLINK-5282,1 54169U 22141N   24111.51847597 -.00007769  00000-0 -47088-3 0  9991,2 54169  53.2168 212.9883 0001021  81.7450 278.3657 15.08816678 81977,6917.952,95.439,540.523,539.11,0.0
54169.0,STARLINK-5282,PAYLOAD,2024-04-20 14:01:59,15.08813238,0.0001112,53.2173,212.6927,105.5202,254.5913,-0.00051342,-8.443e-05,0.0,0 STARLINK-5282,1 54169U 22141N   24111.58471743 -.00008443  00000-0 -51342-3 0  9992,2 54169  53.2173 212.6927 0001112 105.5202 254.5913 15.08813238 81981,6917.962,95.439,540.596,539.058,0.0
54169.0,STARLINK-5282,PAYLOAD,2024-04-20 17:12:46,15.08811047,0.0001131,53.217,212.0961,97.6134,262.4986,-0.00053082,-8.719e-05,0.0,0 STARLINK-5282,1 54169U 22141N   24111.71720044 -.00008719  00000-0 -53082-3 0  9997,2 54169  53.2170 212.0961 0001131  97.6134 262.4986 15.08811047 82004,6917.969,95.439,540.616,539.051,0.0
54169.0,STARLINK-5282,PAYLOAD,2024-04-21 13:52:45,15.08855145,0.0001173,53.2174,208.2277,86.3129,273.7998,0.00021402,3.121e-05,0.0,0 STARLINK-5282,1 54169U 22141N   24112.57830909  .00003121  00000-0  21402-3 0  9995,2 54169  53.2174 208.2277 0001173  86.3129 273.7998 15.08855145 82139,6917.834,95.437,540.511,538.888,0.0
54169.0,STARLINK-5282,PAYLOAD,2024-04-22 10:32:48,15.08827387,8.84e-05,53.217,204.3675,96.1367,263.9726,0.00042332,6.453e-05,0.0,0 STARLINK-5282,1 54169U 22141N   24113.43944473  .00006453  00000-0  42332-3 0  9999,2 54169  53.2170 204.3675 0000884  96.1367 263.9726 15.08827387 82266,6917.919,95.438,540.395,539.172,0.0
54169.0,STARLINK-5282,PAYLOAD,2024-04-22 13:43:34,15.08834087,0.0001227,53.218,203.7742,75.4933,284.6195,0.00054537,8.401e-05,0.0,0 STARLINK-5282,1 54169U 22141N   24113.57192390  .00008401  00000-0  54537-3 0  9992,2 54169  53.2180 203.7742 0001227  75.4933 284.6195 15.08834087 82283,6917.898,95.438,540.612,538.915,0.0
54169.0,STARLINK-5282,PAYLOAD,2024-04-23 11:58:57,15.0885158,0.000243,53.2186,199.606,44.3234,315.7952,7.8712e-05,9.65e-06,0.0,0 STARLINK-5282,1 54169U 22141N   24114.49927817  .00000965  00000-0  78712-4 0  9993,2 54169  53.2186 199.6060 0002430  44.3234 315.7952 15.08851580 82421,6917.845,95.437,541.391,538.029,0.0
54169.0,STARLINK-5282,PAYLOAD,2024-04-24 11:49:43,15.0885493,0.0001401,53.2178,195.148,110.2104,249.9039,7.5662e-05,9.17e-06,0.0,0 STARLINK-5282,1 54169U 22141N   24115.49286674  .00000917  00000-0  75662-4 0  9991,2 54169  53.2178 195.1480 0001401 110.2104 249.9039 15.08854930 82577,6917.835,95.437,540.669,538.731,0.0
54169.0,STARLINK-5282,PAYLOAD,2024-04-25 05:18:59,15.08840523,0.0001775,53.2184,191.8857,83.4905,276.6289,-3.4387e-05,-8.35e-06,0.0,0 STARLINK-5282,1 54169U 22141N   24116.22151738 -.00000835  00000-0 -34387-4 0  9995,2 54169  53.2184 191.8857 0001775  83.4905 276.6289 15.08840523 82688,6917.879,95.438,540.972,538.516,0.0
54169.0,STARLINK-5282,PAYLOAD,2024-04-25 10:05:08,15.08837301,0.0001592,53.2192,190.9878,97.0824,263.035,-2.8779e-05,-7.46e-06,0.0,0 STARLINK-5282,1 54169U 22141N   24116.42024156 -.00000746  00000-0 -28779-4 0  9999,2 54169  53.2192 190.9878 0001592  97.0824 263.0350 15.08837301 82711,6917.889,95.438,540.855,538.652,0.0
54169.0,STARLINK-5282,PAYLOAD,2024-04-26 11:31:18,15.08847932,0.0001301,53.2166,186.2281,86.4081,273.706,6.7243e-05,7.83e-06,0.0,0 STARLINK-5282,1 54169U 22141N   24117.48007334  .00000783  00000-0  67243-4 0  9993,2 54169  53.2166 186.2281 0001301  86.4081 273.7060 15.08847932 82877,6917.856,95.437,540.621,538.821,0.0
54169.0,STARLINK-5282,PAYLOAD,2024-04-27 11:22:04,15.08860228,0.0001419,53.2169,181.7692,90.1817,269.9338,0.00043196,6.597e-05,0.0,0 STARLINK-5282,1 54169U 22141N   24118.47366658  .00006597  00000-0  43196-3 0  9999,2 54169  53.2169 181.7692 0001419  90.1817 269.9338 15.08860228 83021,6917.819,95.436,540.665,538.702,0.0
54169.0,STARLINK-5282,PAYLOAD,2024-04-27 20:54:23,15.08846146,0.0001165,53.215,179.9854,99.5659,260.5465,5.285e-05,5.53e-06,0.0,0 STARLINK-5282,1 54169U 22141N   24118.87110995  .00000553  00000-0  52850-4 0  9998,2 54169  53.2150 179.9854 0001165  99.5659 260.5465 15.08846146 83082,6917.862,95.437,540.533,538.921,0.0
54169.0,STARLINK-5282,PAYLOAD,2024-04-28 12:48:16,15.08822605,0.0001547,53.2157,177.0112,108.1589,251.9572,-0.00035539,-5.937e-05,0.0,0 STARLINK-5282,1 54169U 22141N   24119.53352249 -.00005937  00000-0 -35539-3 0  9999,2 54169  53.2157 177.0112 0001547 108.1589 251.9572 15.08822605 83186,6917.934,95.439,540.869,538.728,0.0
54169.0,STARLINK-5282,PAYLOAD,2024-04-28 20:45:12,15.08828948,0.0001398,53.215,175.5238,104.6849,255.4298,-0.00013796,-2.482e-05,0.0,0 STARLINK-5282,1 54169U 22141N   24119.86472281 -.00002482  00000-0 -13796-3 0  9997,2 54169  53.2150 175.5238 0001398 104.6849 255.4298 15.08828948 83231,6917.914,95.438,540.746,538.812,0.0
54169.0,STARLINK-5282,PAYLOAD,2024-04-29 11:03:40,15.08840697,0.000135,53.2154,172.8466,109.0894,251.0245,0.00020449,2.968e-05,0.0,0 STARLINK-5282,1 54169U 22141N   24120.46088237  .00002968  00000-0  20449-3 0  9999,2 54169  53.2154 172.8466 0001350 109.0894 251.0245 15.08840697 83324,6917.878,95.438,540.677,538.809,0.0
54169.0,STARLINK-5282,PAYLOAD,2024-04-29 20:35:59,15.08841019,0.0001363,53.2153,171.0606,107.1909,252.9232,0.00051291,7.885e-05,0.0,0 STARLINK-5282,1 54169U 22141N   24120.85832672  .00007885  00000-0  51291-3 0  9994,2 54169  53.2153 171.0606 0001363 107.1909 252.9232 15.08841019 83381,6917.877,95.437,540.685,538.799,0.0
54169.0,STARLINK-5282,PAYLOAD,2024-04-30 10:54:27,15.08853112,0.0001282,53.2146,168.3848,108.0137,252.0995,0.00049832,7.655e-05,0.0,0 STARLINK-5282,1 54169U 22141N   24121.45448236  .00007655  00000-0  49832-3 0  9993,2 54169  53.2146 168.3848 0001282 108.0137 252.0995 15.08853112 83477,6917.84,95.437,540.592,538.818,0.0
54169.0,STARLINK-5282,PAYLOAD,2024-05-01 02:48:18,15.08848307,0.000127,53.2141,165.4111,105.1935,254.9198,0.00028376,4.232e-05,0.0,0 STARLINK-5282,1 54169U 22141N   24122.11688103  .00004232  00000-0  28376-3 0  9994,2 54169  53.2141 165.4111 0001270 105.1935 254.9198 15.08848307 83571,6917.855,95.437,540.599,538.841,0.0
54169.0,STARLINK-5282,PAYLOAD,2024-05-01 09:09:50,15.08850633,0.0001264,53.2146,164.2215,105.1364,254.9768,0.00025902,3.838e-05,0.0,0 STARLINK-5282,1 54169U 22141N   24122.38184026  .00003838  00000-0  25902-3 0  9991,2 54169  53.2146 164.2215 0001264 105.1364 254.9768 15.08850633 83610,6917.848,95.437,540.587,538.838,0.0
54169.0,STARLINK-5282,PAYLOAD,2024-05-01 20:17:32,15.08849422,0.0001228,53.2148,162.1401,104.3239,255.7889,0.00018326,2.631e-05,0.0,0 STARLINK-5282,1 54169U 22141N   24122.84551887  .00002631  00000-0  18326-3 0  9997,2 54169  53.2148 162.1401 0001228 104.3239 255.7889 15.08849422 83682,6917.852,95.437,540.566,538.867,0.0
54169.0,STARLINK-5282,PAYLOAD,2024-05-02 12:11:24,15.08846629,0.0001296,53.2147,159.1663,104.8332,255.2804,8.3602e-05,1.043e-05,0.0,0 STARLINK-5282,1 54169U 22141N   24123.50791792  .00001043  00000-0  83602-4 0  9998,2 54169  53.2147 159.1663 0001296 104.8332 255.2804 15.08846629 83780,6917.86,95.437,540.622,538.829,0.0
54169.0,STARLINK-5282,PAYLOAD,2024-05-03 12:02:10,15.08848803,0.0001357,53.2159,154.7069,92.1812,267.9335,8.8314e-05,1.118e-05,0.0,0 STARLINK-5282,1 54169U 22141N   24124.50151307  .00001118  00000-0  88314-4 0  9999,2 54169  53.2159 154.7069 0001357  92.1812 267.9335 15.08848803 83936,6917.853,95.437,540.657,538.78,0.0
54169.0,STARLINK-5282,PAYLOAD,2024-05-04 02:20:40,15.08832669,0.000134,53.2161,152.0284,94.5673,265.5473,1.2628e-06,-2.68e-06,0.0,0 STARLINK-5282,1 54169U 22141N   24125.09768718 -.00000268  00000-0  12628-5 0  9996,2 54169  53.2161 152.0284 0001340  94.5673 265.5473 15.08832669 84023,6917.903,95.438,540.695,538.841,0.0
54169.0,STARLINK-5282,PAYLOAD,2024-05-05 11:43:46,15.08838005,0.0001227,53.2159,145.785,91.5873,268.526,1.8943e-05,1.4e-07,0.0,0 STARLINK-5282,1 54169U 22141N   24126.48873150  .00000014  00000-0  18943-4 0  9990,2 54169  53.2159 145.7850 0001227  91.5873 268.5260 15.08838005 84231,6917.886,95.438,540.6,538.903,0.0
